{
    "links": {
        "self": "http://www.neowsapp.com/rest/v1/neo/3772760?api_key=iIulBulltgU6a56xZRHN4H3l9WmuAYTsLGpBGhQ2"
    },
    "id": "3772760",
    "neo_reference_id": "3772760",
    "name": "(2017 FV90)",
    "designation": "2017 FV90",
    "nasa_jpl_url": "http://ssd.jpl.nasa.gov/sbdb.cgi?sstr=3772760",
    "absolute_magnitude_h": 25.3,
    "estimated_diameter": {
        "kilometers": {
            "estimated_diameter_min": 0.0231502122,
            "estimated_diameter_max": 0.0517654482
        },
        "meters": {
            "estimated_diameter_min": 23.150212221,
            "estimated_diameter_max": 51.7654482198
        },
        "miles": {
            "estimated_diameter_min": 0.0143848705,
            "estimated_diameter_max": 0.0321655483
        },
        "feet": {
            "estimated_diameter_min": 75.9521422633,
            "estimated_diameter_max": 169.8341531374
        }
    },
    "is_potentially_hazardous_asteroid": false,
    "close_approach_data": [
        {
            "close_approach_date": "2012-02-24",
            "close_approach_date_full": "2012-Feb-24 10:08",
            "epoch_date_close_approach": 1330078080000,
            "relative_velocity": {
                "kilometers_per_second": "7.0031408775",
                "kilometers_per_hour": "25211.3071589096",
                "miles_per_hour": "15665.3258288236"
            },
            "miss_distance": {
                "astronomical": "1.9618320945",
                "lunar": "763.1526847605",
                "kilometers": "293485902.634838715",
                "miles": "182363683.580915667"
            },
            "orbiting_body": "Juptr"
        },
        {
            "close_approach_date": "2017-03-31",
            "close_approach_date_full": "2017-Mar-31 04:34",
            "epoch_date_close_approach": 1490934840000,
            "relative_velocity": {
                "kilometers_per_second": "14.2507662748",
                "kilometers_per_hour": "51302.7585892123",
                "miles_per_hour": "31877.5390800581"
            },
            "miss_distance": {
                "astronomical": "0.0395952079",
                "lunar": "15.4025358731",
                "kilometers": "5923358.764047173",
                "miles": "3680604.4640820674"
            },
            "orbiting_body": "Earth"
        }
    ],
    "orbital_data": {
        "orbit_id": "3",
        "orbit_determination_date": "2017-04-06 08:19:06",
        "first_observation_date": "2017-03-25",
        "last_observation_date": "2017-03-29",
        "data_arc_in_days": 4,
        "observations_used": 31,
        "orbit_uncertainty": "8",
        "minimum_orbit_intersection": ".0393683",
        "jupiter_tisserand_invariant": "3.268",
        "epoch_osculation": "2457838.5",
        "eccentricity": ".6297058794923063",
        "semi_major_axis": "2.329976544504152",
        "inclination": "5.560110058098004",
        "ascending_node_longitude": "167.6533788964951",
        "orbital_period": "1299.049650749859",
        "perihelion_distance": ".8627766153507201",
        "perihelion_argument": "74.4030850593138",
        "aphelion_distance": "3.797176473657583",
        "perihelion_time": "2457880.118345069132",
        "mean_anomaly": "348.466488393081",
        "mean_motion": ".2771256662839597",
        "equinox": "J2000",
        "orbit_class": {
            "orbit_class_type": "APO",
            "orbit_class_description": "Near-Earth asteroid orbits which cross the Earth’s orbit similar to that of 1862 Apollo",
            "orbit_class_range": "a (semi-major axis) > 1.0 AU; q (perihelion) < 1.017 AU"
        }
    },
    "is_sentry_object": false
}